{
  "type": "FeatureCollection",
  "features": [
    {
      "type": "Feature",
      "properties": {
        "norad_id": 33412,
        "name": "COSMO-SKYMED 3",
        "group": "resource",
        "lat": -19.943696923219782,
        "lon": 17.742305621012697,
        "alt_km": 546.734939843619,
        "timestamp": "2025-12-16T03:53:26.715518+00:00",
        "meta_object_name": "COSMO-SKYMED 3",
        "meta_object_id": "2008-054A",
        "meta_epoch": "2025-12-15T07:51:44.887104",
        "meta_mean_motion": 15.05385225,
        "meta_eccentricity": 0.00162362,
        "meta_inclination": 97.8477,
        "meta_ra_of_asc_node": 199.7626,
        "meta_arg_of_pericenter": 164.3009,
        "meta_mean_anomaly": 195.8724,
        "meta_ephemeris_type": 0,
        "meta_classification_type": "U",
        "meta_norad_cat_id": 33412,
        "meta_element_set_no": 999,
        "meta_rev_at_epoch": 92926,
        "meta_bstar": 0.00028991597,
        "meta_mean_motion_dot": 4.103e-05,
        "meta_mean_motion_ddot": 0,
        "tle_line1": "1 33412U 08054A   25349.32760286  .00004103  00000+0  28992-3 0  9997",
        "tle_line2": "2 33412  97.8477 199.7626 0016236 164.3009 195.8724 15.05385225929268"
      },
      "geometry": {
        "type": "Point",
        "coordinates": [
          17.742305621012697,
          -19.943696923219782
        ]
      }
    },
    {
      "type": "Feature",
      "properties": {
        "norad_id": 33446,
        "name": "YAOGAN-4",
        "group": "resource",
        "lat": -78.76062299941748,
        "lon": 55.771692635442726,
        "alt_km": 622.0894419005153,
        "timestamp": "2025-12-16T03:53:26.715529+00:00",
        "meta_object_name": "YAOGAN-4",
        "meta_object_id": "2008-061A",
        "meta_epoch": "2025-12-15T07:16:32.228256",
        "meta_mean_motion": 14.82691617,
        "meta_eccentricity": 0.00133933,
        "meta_inclination": 97.918,
        "meta_ra_of_asc_node": 279.3773,
        "meta_arg_of_pericenter": 314.3487,
        "meta_mean_anomaly": 45.6628,
        "meta_ephemeris_type": 0,
        "meta_classification_type": "U",
        "meta_norad_cat_id": 33446,
        "meta_element_set_no": 999,
        "meta_rev_at_epoch": 91841,
        "meta_bstar": 0.00017368353,
        "meta_mean_motion_dot": 1.349e-05,
        "meta_mean_motion_ddot": 0,
        "tle_line1": "1 33446U 08061A   25349.30315079  .00001349  00000+0  17368-3 0  9990",
        "tle_line2": "2 33446  97.9180 279.3773 0013393 314.3487  45.6628 14.82691617918412"
      },
      "geometry": {
        "type": "Point",
        "coordinates": [
          55.771692635442726,
          -78.76062299941748
        ]
      }
    },
    {
      "type": "Feature",
      "properties": {
        "norad_id": 33492,
        "name": "GOSAT (IBUKI)",
        "group": "resource",
        "lat": 51.16063926171763,
        "lon": -71.12361944493551,
        "alt_km": 663.5877900418336,
        "timestamp": "2025-12-16T03:53:26.715540+00:00",
        "meta_object_name": "GOSAT (IBUKI)",
        "meta_object_id": "2009-002A",
        "meta_epoch": "2025-12-15T06:02:12.547104",
        "meta_mean_motion": 14.6755993,
        "meta_eccentricity": 9.659e-05,
        "meta_inclination": 98.0771,
        "meta_ra_of_asc_node": 97.82,
        "meta_arg_of_pericenter": 95.5055,
        "meta_mean_anomaly": 264.6259,
        "meta_ephemeris_type": 0,
        "meta_classification_type": "U",
        "meta_norad_cat_id": 33492,
        "meta_element_set_no": 999,
        "meta_rev_at_epoch": 90448,
        "meta_bstar": 0.00017263665,
        "meta_mean_motion_dot": 9.31e-06,
        "meta_mean_motion_ddot": 0,
        "tle_line1": "1 33492U 09002A   25349.25153411  .00000931  00000+0  17264-3 0  9992",
        "tle_line2": "2 33492  98.0771  97.8200 0000965  95.5055 264.6259 14.67559930904488"
      },
      "geometry": {
        "type": "Point",
        "coordinates": [
          -71.12361944493551,
          51.16063926171763
        ]
      }
    },
    {
      "type": "Feature",
      "properties": {
        "norad_id": 35681,
        "name": "DEIMOS-1",
        "group": "resource",
        "lat": -62.3298779546909,
        "lon": 165.58821793530058,
        "alt_km": 653.8395683168874,
        "timestamp": "2025-12-16T03:53:26.715556+00:00",
        "meta_object_name": "DEIMOS-1",
        "meta_object_id": "2009-041A",
        "meta_epoch": "2025-12-15T08:38:22.964928",
        "meta_mean_motion": 14.74959069,
        "meta_eccentricity": 0.00027039,
        "meta_inclination": 97.7148,
        "meta_ra_of_asc_node": 149.8409,
        "meta_arg_of_pericenter": 75.5264,
        "meta_mean_anomaly": 284.6246,
        "meta_ephemeris_type": 0,
        "meta_classification_type": "U",
        "meta_norad_cat_id": 35681,
        "meta_element_set_no": 999,
        "meta_rev_at_epoch": 87978,
        "meta_bstar": 0.00017355814,
        "meta_mean_motion_dot": 1.119e-05,
        "meta_mean_motion_ddot": 0,
        "tle_line1": "1 35681U 09041A   25349.35998802  .00001119  00000+0  17356-3 0  9990",
        "tle_line2": "2 35681  97.7148 149.8409 0002703  75.5264 284.6246 14.74959069879782"
      },
      "geometry": {
        "type": "Point",
        "coordinates": [
          165.58821793530058,
          -62.3298779546909
        ]
      }
    },
    {
      "type": "Feature",
      "properties": {
        "norad_id": 35682,
        "name": "DUBAISAT-1",
        "group": "resource",
        "lat": -46.78736150666428,
        "lon": -67.79516794645626,
        "alt_km": 651.5112572550561,
        "timestamp": "2025-12-16T03:53:26.715568+00:00",
        "meta_object_name": "DUBAISAT-1",
        "meta_object_id": "2009-041B",
        "meta_epoch": "2025-12-15T08:56:54.062016",
        "meta_mean_motion": 14.74611384,
        "meta_eccentricity": 0.00094508,
        "meta_inclination": 97.9792,
        "meta_ra_of_asc_node": 120.0138,
        "meta_arg_of_pericenter": 305.3127,
        "meta_mean_anomaly": 54.7197,
        "meta_ephemeris_type": 0,
        "meta_classification_type": "U",
        "meta_norad_cat_id": 35682,
        "meta_element_set_no": 999,
        "meta_rev_at_epoch": 87800,
        "meta_bstar": 0.00021503008,
        "meta_mean_motion_dot": 1.384e-05,
        "meta_mean_motion_ddot": 0,
        "tle_line1": "1 35682U 09041B   25349.37284794  .00001384  00000+0  21503-3 0  9994",
        "tle_line2": "2 35682  97.9792 120.0138 0009450 305.3127  54.7197 14.74611384878008"
      },
      "geometry": {
        "type": "Point",
        "coordinates": [
          -67.79516794645626,
          -46.78736150666428
        ]
      }
    },
    {
      "type": "Feature",
      "properties": {
        "norad_id": 35931,
        "name": "OCEANSAT-2",
        "group": "resource",
        "lat": -22.324355507469345,
        "lon": 167.01194654086433,
        "alt_km": 911.8293316184117,
        "timestamp": "2025-12-16T03:53:26.715579+00:00",
        "meta_object_name": "OCEANSAT-2",
        "meta_object_id": "2009-051A",
        "meta_epoch": "2025-12-15T08:03:15.814944",
        "meta_mean_motion": 13.99624094,
        "meta_eccentricity": 0.00161502,
        "meta_inclination": 98.2221,
        "meta_ra_of_asc_node": 349.673,
        "meta_arg_of_pericenter": 38.2695,
        "meta_mean_anomaly": 321.9615,
        "meta_ephemeris_type": 0,
        "meta_classification_type": "U",
        "meta_norad_cat_id": 35931,
        "meta_element_set_no": 999,
        "meta_rev_at_epoch": 85361,
        "meta_bstar": -6.5250078e-05,
        "meta_mean_motion_dot": -1.33e-06,
        "meta_mean_motion_ddot": 0,
        "tle_line1": "1 35931U 09051A   25349.33559971 -.00000133  00000+0 -65250-4 0  9991",
        "tle_line2": "2 35931  98.2221 349.6730 0016150  38.2695 321.9615 13.99624094853612"
      },
      "geometry": {
        "type": "Point",
        "coordinates": [
          167.01194654086433,
          -22.324355507469345
        ]
      }
    },
    {
      "type": "Feature",
      "properties": {
        "norad_id": 35946,
        "name": "WORLDVIEW-2 (WV-2)",
        "group": "resource",
        "lat": 70.62837412790051,
        "lon": 36.095945790562084,
        "alt_km": 755.5918447721197,
        "timestamp": "2025-12-16T03:53:26.715590+00:00",
        "meta_object_name": "WORLDVIEW-2 (WV-2)",
        "meta_object_id": "2009-055A",
        "meta_epoch": "2025-12-15T07:30:42.403392",
        "meta_mean_motion": 14.37725033,
        "meta_eccentricity": 0.00051025,
        "meta_inclination": 98.4787,
        "meta_ra_of_asc_node": 60.362,
        "meta_arg_of_pericenter": 64.2768,
        "meta_mean_anomaly": 295.8945,
        "meta_ephemeris_type": 0,
        "meta_classification_type": "U",
        "meta_norad_cat_id": 35946,
        "meta_element_set_no": 999,
        "meta_rev_at_epoch": 84922,
        "meta_bstar": 7.1382823e-05,
        "meta_mean_motion_dot": 1.71e-06,
        "meta_mean_motion_ddot": 0,
        "tle_line1": "1 35946U 09055A   25349.31299078  .00000171  00000+0  71383-4 0  9992",
        "tle_line2": "2 35946  98.4787  60.3620 0005102  64.2768 295.8945 14.37725033849222"
      },
      "geometry": {
        "type": "Point",
        "coordinates": [
          36.095945790562084,
          70.62837412790051
        ]
      }
    }
  ]
}